[
    {
        "Altitude(m)": 556874.5327639977,
        "Argument of Periapsis(deg)": 0.0,
        "Eccentricity": 0.0,
        "Inclination(deg)": 53.0,
        "Latitude(deg)": -13.15404534805342,
        "Longitude(deg)": 175.11769955646434,
        "Mean Anomaly(deg)": 196.36359999999996,
        "RAAN(deg)": 85.00000000000001,
        "Satellite Name": "Starlink Shell 1 386",
        "Satellite Number": 386,
        "Semi-Major Axis(m)": 6931778.249405717,
        "Time(s)": 0
    },
    {
        "Altitude(m)": 557007.6229443144,
        "Argument of Periapsis(deg)": 0.00034857847951123687,
        "Eccentricity": 0.0,
        "Inclination(deg)": 53.0,
        "Latitude(deg)": -13.649297625927385,
        "Longitude(deg)": 175.47403775902544,
        "Mean Anomaly(deg)": 196.99043120355674,
        "RAAN(deg)": 84.99948122992254,
        "Satellite Name": "Starlink Shell 1 386",
        "Satellite Number": 386,
        "Semi-Major Axis(m)": 6931778.249405717,
        "Time(s)": 10
    },
    {
        "Altitude(m)": 557142.8079504943,
        "Argument of Periapsis(deg)": 0.0006971569590224737,
        "Eccentricity": 0.0,
        "Inclination(deg)": 53.0,
        "Latitude(deg)": -14.143877255416127,
        "Longitude(deg)": 175.83202446114717,
        "Mean Anomaly(deg)": 197.61726240711343,
        "RAAN(deg)": 84.99896245984506,
        "Satellite Name": "Starlink Shell 1 386",
        "Satellite Number": 386,
        "Semi-Major Axis(m)": 6931778.249405717,
        "Time(s)": 20
    },
    {
        "Altitude(m)": 557280.0450164947,
        "Argument of Periapsis(deg)": 0.0010457354385337105,
        "Eccentricity": 0.0,
        "Inclination(deg)": 53.0,
        "Latitude(deg)": -14.637756681983877,
        "Longitude(deg)": 176.19172687818752,
        "Mean Anomaly(deg)": 198.24409361067012,
        "RAAN(deg)": 84.9984436897676,
        "Satellite Name": "Starlink Shell 1 386",
        "Satellite Number": 386,
        "Semi-Major Axis(m)": 6931778.249405717,
        "Time(s)": 30
    },
    {
        "Altitude(m)": 557419.2903149087,
        "Argument of Periapsis(deg)": 0.0013943139180449475,
        "Eccentricity": 0.0,
        "Inclination(deg)": 53.0,
        "Latitude(deg)": -15.13090798304164,
        "Longitude(deg)": 176.55321345563337,
        "Mean Anomaly(deg)": 198.8709248142268,
        "RAAN(deg)": 84.99792491969012,
        "Satellite Name": "Starlink Shell 1 386",
        "Satellite Number": 386,
        "Semi-Major Axis(m)": 6931778.249405717,
        "Time(s)": 40
    },
    {
        "Altitude(m)": 557560.4989760536,
        "Argument of Periapsis(deg)": 0.0017428923975561844,
        "Eccentricity": 0.0,
        "Inclination(deg)": 53.0,
        "Latitude(deg)": -15.623302851562011,
        "Longitude(deg)": 176.9165528872166,
        "Mean Anomaly(deg)": 199.49775601778356,
        "RAAN(deg)": 84.99740614961264,
        "Satellite Name": "Starlink Shell 1 386",
        "Satellite Number": 386,
        "Semi-Major Axis(m)": 6931778.249405717,
        "Time(s)": 50
    },
    {
        "Altitude(m)": 557703.6251075367,
        "Argument of Periapsis(deg)": 0.002091470877067421,
        "Eccentricity": 0.0,
        "Inclination(deg)": 53.0,
        "Latitude(deg)": -16.114912579354584,
        "Longitude(deg)": 177.2818146458766,
        "Mean Anomaly(deg)": 200.1245872213403,
        "RAAN(deg)": 84.99688737953518,
        "Satellite Name": "Starlink Shell 1 386",
        "Satellite Number": 386,
        "Semi-Major Axis(m)": 6931778.249405717,
        "Time(s)": 60
    },
    {
        "Altitude(m)": 557848.6218143662,
        "Argument of Periapsis(deg)": 0.0024400493565786582,
        "Eccentricity": 0.0,
        "Inclination(deg)": 53.0,
        "Latitude(deg)": -16.605708039985267,
        "Longitude(deg)": 177.64906951467097,
        "Mean Anomaly(deg)": 200.75141842489703,
        "RAAN(deg)": 84.99636860945769,
        "Satellite Name": "Starlink Shell 1 386",
        "Satellite Number": 386,
        "Semi-Major Axis(m)": 6931778.249405717,
        "Time(s)": 70
    },
    {
        "Altitude(m)": 557995.4412195019,
        "Argument of Periapsis(deg)": 0.002788627836089895,
        "Eccentricity": 0.0,
        "Inclination(deg)": 53.0,
        "Latitude(deg)": -17.095659671326885,
        "Longitude(deg)": 178.0183886047374,
        "Mean Anomaly(deg)": 201.37824962845372,
        "RAAN(deg)": 84.99584983938023,
        "Satellite Name": "Starlink Shell 1 386",
        "Satellite Number": 386,
        "Semi-Major Axis(m)": 6931778.249405717,
        "Time(s)": 80
    },
    {
        "Altitude(m)": 558144.0344849206,
        "Argument of Periapsis(deg)": 0.0031372063156011316,
        "Eccentricity": 0.0,
        "Inclination(deg)": 53.0,
        "Latitude(deg)": -17.584737457732142,
        "Longitude(deg)": 178.38984388602182,
        "Mean Anomaly(deg)": 202.0050808320104,
        "RAAN(deg)": 84.99533106930275,
        "Satellite Name": "Starlink Shell 1 386",
        "Satellite Number": 386,
        "Semi-Major Axis(m)": 6931778.249405717,
        "Time(s)": 90
    },
    {
        "Altitude(m)": 558294.3518331489,
        "Argument of Periapsis(deg)": 0.0034857847951123688,
        "Eccentricity": 0.0,
        "Inclination(deg)": 53.0,
        "Latitude(deg)": -18.0729109118156,
        "Longitude(deg)": 178.76350871786875,
        "Mean Anomaly(deg)": 202.63191203556713,
        "RAAN(deg)": 84.99481229922527,
        "Satellite Name": "Starlink Shell 1 386",
        "Satellite Number": 386,
        "Semi-Major Axis(m)": 6931778.249405717,
        "Time(s)": 100
    },
    {
        "Altitude(m)": 558446.3425692037,
        "Argument of Periapsis(deg)": 0.003834363274623606,
        "Eccentricity": 0.0,
        "Inclination(deg)": 53.0,
        "Latitude(deg)": -18.560149055830205,
        "Longitude(deg)": 179.1394568665632,
        "Mean Anomaly(deg)": 203.25874323912385,
        "RAAN(deg)": 84.99429352914781,
        "Satellite Name": "Starlink Shell 1 386",
        "Satellite Number": 386,
        "Semi-Major Axis(m)": 6931778.249405717,
        "Time(s)": 110
    },
    {
        "Altitude(m)": 558599.9551030722,
        "Argument of Periapsis(deg)": 0.004182941754134842,
        "Eccentricity": 0.0,
        "Inclination(deg)": 53.0,
        "Latitude(deg)": -19.046420402631433,
        "Longitude(deg)": 179.51776303553112,
        "Mean Anomaly(deg)": 203.8855744426806,
        "RAAN(deg)": 84.99377475907033,
        "Satellite Name": "Starlink Shell 1 386",
        "Satellite Number": 386,
        "Semi-Major Axis(m)": 6931778.249405717,
        "Time(s)": 120
    },
    {
        "Altitude(m)": 558755.1369725115,
        "Argument of Periapsis(deg)": 0.004531520233646079,
        "Eccentricity": 0.0,
        "Inclination(deg)": 53.0,
        "Latitude(deg)": -19.531692936215258,
        "Longitude(deg)": 179.89850339528002,
        "Mean Anomaly(deg)": 204.51240564623728,
        "RAAN(deg)": 84.99325598899286,
        "Satellite Name": "Starlink Shell 1 386",
        "Satellite Number": 386,
        "Semi-Major Axis(m)": 6931778.249405717,
        "Time(s)": 130
    },
    {
        "Altitude(m)": 558911.8348663747,
        "Argument of Periapsis(deg)": 0.0048800987131573164,
        "Eccentricity": 0.0,
        "Inclination(deg)": 53.0,
        "Latitude(deg)": -20.015934091817147,
        "Longitude(deg)": -179.71824539984146,
        "Mean Anomaly(deg)": 205.13923684979397,
        "RAAN(deg)": 84.9927372189154,
        "Satellite Name": "Starlink Shell 1 386",
        "Satellite Number": 386,
        "Semi-Major Axis(m)": 6931778.249405717,
        "Time(s)": 140
    },
    {
        "Altitude(m)": 559069.9946482719,
        "Argument of Periapsis(deg)": 0.005228677192668553,
        "Eccentricity": 0.0,
        "Inclination(deg)": 53.0,
        "Latitude(deg)": -20.499110735565402,
        "Longitude(deg)": -179.33240568237306,
        "Mean Anomaly(deg)": 205.76606805335072,
        "RAAN(deg)": 84.99221844883792,
        "Satellite Name": "Starlink Shell 1 386",
        "Satellite Number": 386,
        "Semi-Major Axis(m)": 6931778.249405717,
        "Time(s)": 150
    },
    {
        "Altitude(m)": 559229.5613806592,
        "Argument of Periapsis(deg)": 0.00557725567217979,
        "Eccentricity": 0.0,
        "Inclination(deg)": 53.0,
        "Latitude(deg)": -20.981189143676502,
        "Longitude(deg)": -178.94389824289343,
        "Mean Anomaly(deg)": 206.39289925690747,
        "RAAN(deg)": 84.99169967876044,
        "Satellite Name": "Starlink Shell 1 386",
        "Satellite Number": 386,
        "Semi-Major Axis(m)": 6931778.249405717,
        "Time(s)": 160
    },
    {
        "Altitude(m)": 559390.4793493097,
        "Argument of Periapsis(deg)": 0.0059258341516910265,
        "Eccentricity": 0.0,
        "Inclination(deg)": 53.0,
        "Latitude(deg)": -21.462134981180427,
        "Longitude(deg)": -178.55264331452912,
        "Mean Anomaly(deg)": 207.0197304604641,
        "RAAN(deg)": 84.99118090868298,
        "Satellite Name": "Starlink Shell 1 386",
        "Satellite Number": 386,
        "Semi-Major Axis(m)": 6931778.249405717,
        "Time(s)": 170
    },
    {
        "Altitude(m)": 559552.692088153,
        "Argument of Periapsis(deg)": 0.006274412631202263,
        "Eccentricity": 0.0,
        "Inclination(deg)": 53.0,
        "Latitude(deg)": -21.941913280171978,
        "Longitude(deg)": -178.15856004514586,
        "Mean Anomaly(deg)": 207.64656166402088,
        "RAAN(deg)": 84.9906621386055,
        "Satellite Name": "Starlink Shell 1 386",
        "Satellite Number": 386,
        "Semi-Major Axis(m)": 6931778.249405717,
        "Time(s)": 180
    }
]